[{"OBJECT_NAME":"YAOGAN-43 01D","OBJECT_ID":"2024-148D","EPOCH":"2026-03-09T10:27:16.254720","MEAN_MOTION":15.28369377,"ECCENTRICITY":0.00025569,"INCLINATION":35.001,"RA_OF_ASC_NODE":61.7102,"ARG_OF_PERICENTER":326.2473,"MEAN_ANOMALY":33.808,"EPHEMERIS_TYPE":0,"CLASSIFICATION_TYPE":"U","NORAD_CAT_ID":60461,"ELEMENT_SET_NO":999,"REV_AT_EPOCH":8700,"BSTAR":0.00037765912,"MEAN_MOTION_DOT":0.00010676,"MEAN_MOTION_DDOT":0},{"OBJECT_NAME":"STARLINK-32830","OBJECT_ID":"2025-034F","EPOCH":"2026-03-09T17:39:56.874816","MEAN_MOTION":15.30208554,"ECCENTRICITY":0.00015752,"INCLINATION":53.1578,"RA_OF_ASC_NODE":257.9268,"ARG_OF_PERICENTER":135.6995,"MEAN_ANOMALY":224.4132,"EPHEMERIS_TYPE":0,"CLASSIFICATION_TYPE":"U","NORAD_CAT_ID":63034,"ELEMENT_SET_NO":999,"REV_AT_EPOCH":5909,"BSTAR":0.00062718239,"MEAN_MOTION_DOT":0.00018267,"MEAN_MOTION_DDOT":0}]
